start=new Date('2021-11-26T00:00:00.000Z').valueOf();
sats=[{"OBJECT_NAME":"STARLINK-2575","REF_FRAME":"TEME","ECCENTRICITY":"0.00019170","ARG_OF_PERICENTER":"87.4833","BSTAR":"0.00011264000000","FILE":"3224126","MEAN_MOTION_DOT":"0.00001396","REV_AT_EPOCH":"3263","DECAY_DATE":null,"TLE_LINE2":"2 48396  53.0558 167.4035 0001917  87.4833 272.6375 15.06394946 32638","RCS_SIZE":"LARGE","RA_OF_ASC_NODE":"167.4035","ELEMENT_SET_NO":"999","MEAN_MOTION_DDOT":"0.0000000000000","TLE_LINE1":"1 48396U 21038AV  21329.63533302  .00001396  00000-0  11264-3 0  9992","PERIAPSIS":"545.901","COUNTRY_CODE":"US","EPHEMERIS_TYPE":"0","SITE":"AFETR","SEMIMAJOR_AXIS":"6925.364","APOAPSIS":"548.557","CENTER_NAME":"EARTH","MEAN_MOTION":"15.06394946","MEAN_ANOMALY":"272.6375","OBJECT_TYPE":"PAYLOAD","OBJECT_ID":"2021-038AV","PERIOD":"95.592","GP_ID":"190494019","INCLINATION":"53.0558","CLASSIFICATION_TYPE":"U","EPOCH":"2021-11-25T15:14:52.772928","MEAN_ELEMENT_THEORY":"SGP4","LAUNCH_DATE":"2021-05-04","TIME_SYSTEM":"UTC","NORAD_CAT_ID":"48396"},{"ARG_OF_PERICENTER":"82.2492","BSTAR":"0.00006091700000","FILE":"3224126","OBJECT_NAME":"STARLINK-2590","REF_FRAME":"TEME","ECCENTRICITY":"0.00018110","TLE_LINE2":"2 48397  53.0556 167.4376 0001811  82.2492 277.8702 15.06392955 32631","ELEMENT_SET_NO":"999","RCS_SIZE":"LARGE","RA_OF_ASC_NODE":"167.4376","MEAN_MOTION_DDOT":"0.0000000000000","TLE_LINE1":"1 48397U 21038AW  21329.63163857  .00000626  00000-0  60917-4 0  9992","REV_AT_EPOCH":"3263","MEAN_MOTION_DOT":"0.00000626","DECAY_DATE":null,"SEMIMAJOR_AXIS":"6925.370","SITE":"AFETR","APOAPSIS":"548.489","PERIAPSIS":"545.981","COUNTRY_CODE":"US","EPHEMERIS_TYPE":"0","PERIOD":"95.593","GP_ID":"190494270","INCLINATION":"53.0556","CLASSIFICATION_TYPE":"U","EPOCH":"2021-11-25T15:09:33.572448","MEAN_ELEMENT_THEORY":"SGP4","LAUNCH_DATE":"2021-05-04","TIME_SYSTEM":"UTC","NORAD_CAT_ID":"48397","CENTER_NAME":"EARTH","MEAN_MOTION":"15.06392955","MEAN_ANOMALY":"277.8702","OBJECT_TYPE":"PAYLOAD","OBJECT_ID":"2021-038AW"},{"REF_FRAME":"TEME","OBJECT_NAME":"STARLINK-2588","ECCENTRICITY":"0.00019030","ARG_OF_PERICENTER":"81.7823","FILE":"3224126","BSTAR":"0.00005826700000","MEAN_MOTION_DOT":"0.00000586","REV_AT_EPOCH":"3264","DECAY_DATE":null,"MEAN_MOTION_DDOT":"0.0000000000000","ELEMENT_SET_NO":"999","RCS_SIZE":"LARGE","RA_OF_ASC_NODE":"167.1501","TLE_LINE2":"2 48398  53.0545 167.1501 0001903  81.7823 278.3381 15.06397083 32648","TLE_LINE1":"1 48398U 21038AX  21329.69430120  .00000586  00000-0  58267-4 0  9999","PERIAPSIS":"545.905","EPHEMERIS_TYPE":"0","COUNTRY_CODE":"US","APOAPSIS":"548.540","SEMIMAJOR_AXIS":"6925.357","SITE":"AFETR","MEAN_ANOMALY":"278.3381","MEAN_MOTION":"15.06397083","CENTER_NAME":"EARTH","OBJECT_TYPE":"PAYLOAD","OBJECT_ID":"2021-038AX","CLASSIFICATION_TYPE":"U","INCLINATION":"53.0545","PERIOD":"95.592","GP_ID":"190493018","NORAD_CAT_ID":"48398","TIME_SYSTEM":"UTC","LAUNCH_DATE":"2021-05-04","MEAN_ELEMENT_THEORY":"SGP4","EPOCH":"2021-11-25T16:39:47.623680"},{"SEMIMAJOR_AXIS":"6925.358","SITE":"AFETR","APOAPSIS":"548.508","COUNTRY_CODE":"US","EPHEMERIS_TYPE":"0","PERIAPSIS":"545.937","EPOCH":"2021-11-25T13:23:24.424512","MEAN_ELEMENT_THEORY":"SGP4","LAUNCH_DATE":"2021-05-04","TIME_SYSTEM":"UTC","NORAD_CAT_ID":"48399","PERIOD":"95.592","GP_ID":"190465280","INCLINATION":"53.0556","CLASSIFICATION_TYPE":"U","OBJECT_ID":"2021-038AY","OBJECT_TYPE":"PAYLOAD","CENTER_NAME":"EARTH","MEAN_MOTION":"15.06397077","MEAN_ANOMALY":"280.2618","BSTAR":"0.00006886300000","FILE":"3223911","ARG_OF_PERICENTER":"79.8580","ECCENTRICITY":"0.00018560","OBJECT_NAME":"STARLINK-2587","REF_FRAME":"TEME","TLE_LINE1":"1 48399U 21038AY  21329.55792158  .00000744  00000-0  68863-4 0  9996","TLE_LINE2":"2 48399  53.0556 167.7719 0001856  79.8580 280.2618 15.06397077 32618","RCS_SIZE":"LARGE","RA_OF_ASC_NODE":"167.7719","ELEMENT_SET_NO":"999","MEAN_MOTION_DDOT":"0.0000000000000","DECAY_DATE":null,"REV_AT_EPOCH":"3261","MEAN_MOTION_DOT":"0.00000744"},{"MEAN_MOTION_DOT":"0.00001121","REV_AT_EPOCH":"3143","DECAY_DATE":null,"MEAN_MOTION_DDOT":"0.0000000000000","RCS_SIZE":"LARGE","ELEMENT_SET_NO":"999","RA_OF_ASC_NODE":"166.8886","TLE_LINE2":"2 48400  53.0552 166.8886 0001829  89.2270 270.8929 15.06398798 31433","TLE_LINE1":"1 48400U 21038AZ  21329.75327197  .00001121  00000-0  94161-4 0  9998","REF_FRAME":"TEME","OBJECT_NAME":"STARLINK-2576","ECCENTRICITY":"0.00018290","ARG_OF_PERICENTER":"89.2270","FILE":"3224126","BSTAR":"0.00009416100000","MEAN_ANOMALY":"270.8929","MEAN_MOTION":"15.06398798","CENTER_NAME":"EARTH","OBJECT_ID":"2021-038AZ","OBJECT_TYPE":"PAYLOAD","CLASSIFICATION_TYPE":"U","INCLINATION":"53.0552","PERIOD":"95.592","GP_ID":"190493521","NORAD_CAT_ID":"48400","TIME_SYSTEM":"UTC","LAUNCH_DATE":"2021-05-04","MEAN_ELEMENT_THEORY":"SGP4","EPOCH":"2021-11-25T18:04:42.698208","PERIAPSIS":"545.951","EPHEMERIS_TYPE":"0","COUNTRY_CODE":"US","APOAPSIS":"548.484","SEMIMAJOR_AXIS":"6925.352","SITE":"AFETR"},{"REV_AT_EPOCH":"3140","MEAN_MOTION_DOT":"0.00000617","DECAY_DATE":null,"ELEMENT_SET_NO":"999","RCS_SIZE":"LARGE","RA_OF_ASC_NODE":"167.6214","TLE_LINE2":"2 48401  53.0545 167.6214 0001877  81.6756 278.4446 15.06391215 31400","MEAN_MOTION_DDOT":"0.0000000000000","TLE_LINE1":"1 48401U 21038BA  21329.59014215  .00000617  00000-0  60372-4 0  9991","OBJECT_NAME":"STARLINK-2571","REF_FRAME":"TEME","ECCENTRICITY":"0.00018770","ARG_OF_PERICENTER":"81.6756","BSTAR":"0.00006037200000","FILE":"3223911","CENTER_NAME":"EARTH","MEAN_ANOMALY":"278.4446","MEAN_MOTION":"15.06391215","OBJECT_TYPE":"PAYLOAD","OBJECT_ID":"2021-038BA","INCLINATION":"53.0545","PERIOD":"95.593","GP_ID":"190465783","CLASSIFICATION_TYPE":"U","LAUNCH_DATE":"2021-05-04","MEAN_ELEMENT_THEORY":"SGP4","EPOCH":"2021-11-25T14:09:48.281760","NORAD_CAT_ID":"48401","TIME_SYSTEM":"UTC","PERIAPSIS":"545.941","COUNTRY_CODE":"US","EPHEMERIS_TYPE":"0","APOAPSIS":"548.540","SEMIMAJOR_AXIS":"6925.375","SITE":"AFETR"},{"APOAPSIS":"548.564","SEMIMAJOR_AXIS":"6925.356","SITE":"AFETR","COUNTRY_CODE":"US","EPHEMERIS_TYPE":"0","PERIAPSIS":"545.878","LAUNCH_DATE":"2021-05-04","MEAN_ELEMENT_THEORY":"SGP4","EPOCH":"2021-11-25T17:59:23.692128","NORAD_CAT_ID":"48402","TIME_SYSTEM":"UTC","INCLINATION":"53.0556","GP_ID":"190492520","PERIOD":"95.592","CLASSIFICATION_TYPE":"U","OBJECT_TYPE":"PAYLOAD","OBJECT_ID":"2021-038BB","CENTER_NAME":"EARTH","MEAN_ANOMALY":"276.7964","MEAN_MOTION":"15.06397474","BSTAR":"0.00007008700000","FILE":"3224126","ARG_OF_PERICENTER":"83.3245","ECCENTRICITY":"0.00019390","OBJECT_NAME":"STARLINK-2560","REF_FRAME":"TEME","TLE_LINE1":"1 48402U 21038BB  21329.74957977  .00000762  00000-0  70087-4 0  9995","ELEMENT_SET_NO":"999","RCS_SIZE":"LARGE","RA_OF_ASC_NODE":"166.9096","TLE_LINE2":"2 48402  53.0556 166.9096 0001939  83.3245 276.7964 15.06397474 31436","MEAN_MOTION_DDOT":"0.0000000000000","DECAY_DATE":null,"REV_AT_EPOCH":"3143","MEAN_MOTION_DOT":"0.00000762"},{"MEAN_MOTION_DDOT":"0.0000000000000","RCS_SIZE":"LARGE","RA_OF_ASC_NODE":"167.8066","ELEMENT_SET_NO":"999","TLE_LINE2":"2 48403  53.0543 167.8066 0001705  82.9233 277.1950 15.06386077 31407","TLE_LINE1":"1 48403U 21038BC  21329.54686225  .00000591  00000-0  58582-4 0  9995","REV_AT_EPOCH":"3140","MEAN_MOTION_DOT":"0.00000591","DECAY_DATE":null,"ARG_OF_PERICENTER":"82.9233","FILE":"3223911","BSTAR":"0.00005858200000","REF_FRAME":"TEME","OBJECT_NAME":"STARLINK-2561","ECCENTRICITY":"0.00017050","CLASSIFICATION_TYPE":"U","INCLINATION":"53.0543","GP_ID":"190464781","PERIOD":"95.593","NORAD_CAT_ID":"48403","TIME_SYSTEM":"UTC","MEAN_ELEMENT_THEORY":"SGP4","LAUNCH_DATE":"2021-05-04","EPOCH":"2021-11-25T13:07:28.898400","MEAN_ANOMALY":"277.1950","MEAN_MOTION":"15.06386077","CENTER_NAME":"EARTH","OBJECT_ID":"2021-038BC","OBJECT_TYPE":"PAYLOAD","APOAPSIS":"548.437","SITE":"AFETR","SEMIMAJOR_AXIS":"6925.391","PERIAPSIS":"546.075","EPHEMERIS_TYPE":"0","COUNTRY_CODE":"US"},{"MEAN_MOTION_DOT":"-0.00000530","REV_AT_EPOCH":"3142","DECAY_DATE":null,"MEAN_MOTION_DDOT":"0.0000000000000","TLE_LINE2":"2 48404  53.0545 167.2406 0001959  86.8891 273.2322 15.06398624 31429","RA_OF_ASC_NODE":"167.2406","RCS_SIZE":"LARGE","ELEMENT_SET_NO":"999","TLE_LINE1":"1 48404U 21038BD  21329.67586026 -.00000530  00000-0 -16653-4 0  9996","REF_FRAME":"TEME","OBJECT_NAME":"STARLINK-2593","ECCENTRICITY":"0.00019590","ARG_OF_PERICENTER":"86.8891","FILE":"3224126","BSTAR":"-0.00001665300000","MEAN_MOTION":"15.06398624","MEAN_ANOMALY":"273.2322","CENTER_NAME":"EARTH","OBJECT_ID":"2021-038BD","OBJECT_TYPE":"PAYLOAD","CLASSIFICATION_TYPE":"U","GP_ID":"190494020","PERIOD":"95.592","INCLINATION":"53.0545","TIME_SYSTEM":"UTC","NORAD_CAT_ID":"48404","EPOCH":"2021-11-25T16:13:14.326464","LAUNCH_DATE":"2021-05-04","MEAN_ELEMENT_THEORY":"SGP4","PERIAPSIS":"545.861","EPHEMERIS_TYPE":"0","COUNTRY_CODE":"US","SEMIMAJOR_AXIS":"6925.353","SITE":"AFETR","APOAPSIS":"548.574"},{"DECAY_DATE":null,"MEAN_MOTION_DOT":"-0.00000738","REV_AT_EPOCH":"3142","TLE_LINE1":"1 48405U 21038BE  21329.67218296 -.00000738  00000-0 -30668-4 0  9990","RA_OF_ASC_NODE":"167.2564","RCS_SIZE":"LARGE","ELEMENT_SET_NO":"999","TLE_LINE2":"2 48405  53.0565 167.2564 0001854  87.3598 272.7603 15.06392722 31420","MEAN_MOTION_DDOT":"0.0000000000000","ECCENTRICITY":"0.00018540","OBJECT_NAME":"STARLINK-2570","REF_FRAME":"TEME","BSTAR":"-0.00003066800000","FILE":"3224126","ARG_OF_PERICENTER":"87.3598","OBJECT_TYPE":"PAYLOAD","OBJECT_ID":"2021-038BE","CENTER_NAME":"EARTH","MEAN_ANOMALY":"272.7603","MEAN_MOTION":"15.06392722","MEAN_ELEMENT_THEORY":"SGP4","LAUNCH_DATE":"2021-05-04","EPOCH":"2021-11-25T16:07:56.607744","NORAD_CAT_ID":"48405","TIME_SYSTEM":"UTC","INCLINATION":"53.0565","PERIOD":"95.593","GP_ID":"190494271","CLASSIFICATION_TYPE":"U","COUNTRY_CODE":"US","EPHEMERIS_TYPE":"0","PERIAPSIS":"545.952","APOAPSIS":"548.520","SEMIMAJOR_AXIS":"6925.371","SITE":"AFETR"}];
